{
  "norad_id": 65153,
  "name": "KUIPER-00116",
  "history": [
    {
      "epoch": "2026-04-15T10:20:41.301312Z",
      "apogee_km": 630.0648624380619,
      "perigee_km": 628.64066021897,
      "latitude_deg": -2.5577576658867375e-05,
      "longitude_deg": 11.891488909849679,
      "height_km": 629.9858367493675,
      "semi_major_axis_km": 7007.489761328516,
      "eccentricity": 0.00010162,
      "inclination_deg": 51.9039,
      "raan_deg": 10.6568,
      "arg_perigee_deg": 80.8828,
      "mean_anomaly_deg": 279.2249,
      "mean_motion_rev_day": 14.79990931
    },
    {
      "epoch": "2026-04-16T10:39:20.666016Z",
      "apogee_km": 630.3113969750675,
      "perigee_km": 628.6716119050288,
      "latitude_deg": 5.0796416950893936e-05,
      "longitude_deg": 1.7501162344583223,
      "height_km": 630.0956343668845,
      "semi_major_axis_km": 7007.628504440048,
      "eccentricity": 0.000117,
      "inclination_deg": 51.9019,
      "raan_deg": 6.1778,
      "arg_perigee_deg": 80.0729,
      "mean_anomaly_deg": 280.0366,
      "mean_motion_rev_day": 14.79946978
    },
    {
      "epoch": "2026-04-17T17:26:59.808768Z",
      "apogee_km": 630.0744019229487,
      "perigee_km": 629.1409703307554,
      "latitude_deg": -4.5114016370154156e-05,
      "longitude_deg": -107.10072457898457,
      "height_km": 630.3364849299342,
      "semi_major_axis_km": 7007.744686126852,
      "eccentricity": 6.66e-05,
      "inclination_deg": 51.9016,
      "raan_deg": 0.5048,
      "arg_perigee_deg": 87.8785,
      "mean_anomaly_deg": 272.2253,
      "mean_motion_rev_day": 14.79910174
    },
    {
      "epoch": "2026-04-18T09:39:26.232480Z",
      "apogee_km": 629.8244673562303,
      "perigee_km": 629.3378514072429,
      "latitude_deg": -6.718263716866518e-06,
      "longitude_deg": 6.137595075909949,
      "height_km": 630.1815555593028,
      "semi_major_axis_km": 7007.718159381737,
      "eccentricity": 3.472e-05,
      "inclination_deg": 51.903,
      "raan_deg": 357.5188,
      "arg_perigee_deg": 53.0335,
      "mean_anomaly_deg": 307.0659,
      "mean_motion_rev_day": 14.79918577
    },
    {
      "epoch": "2026-04-19T19:41:36.849696Z",
      "apogee_km": 630.2683317753608,
      "perigee_km": 629.0475738945761,
      "latitude_deg": -2.120582037417753e-05,
      "longitude_deg": -152.07807611431204,
      "height_km": 630.5211611999947,
      "semi_major_axis_km": 7007.794952834968,
      "eccentricity": 8.71e-05,
      "inclination_deg": 51.9011,
      "raan_deg": 351.2452,
      "arg_perigee_deg": 101.0933,
      "mean_anomaly_deg": 259.0127,
      "mean_motion_rev_day": 14.79894251
    },
    {
      "epoch": "2026-04-20T08:39:35.123616Z",
      "apogee_km": 630.4057610498721,
      "perigee_km": 628.9465941900271,
      "latitude_deg": -1.3742394915824856e-05,
      "longitude_deg": 10.510418296078148,
      "height_km": 630.4853693204079,
      "semi_major_axis_km": 7007.813177619949,
      "eccentricity": 0.00010411,
      "inclination_deg": 51.9024,
      "raan_deg": 348.859,
      "arg_perigee_deg": 94.9952,
      "mean_anomaly_deg": 265.1129,
      "mean_motion_rev_day": 14.79888478
    },
    {
      "epoch": "2026-04-21T20:18:57.693312Z",
      "apogee_km": 630.2737170170694,
      "perigee_km": 628.9618653201615,
      "latitude_deg": 7.660724992777829e-06,
      "longitude_deg": -172.36645999319134,
      "height_km": 630.4375737447759,
      "semi_major_axis_km": 7007.754791168615,
      "eccentricity": 9.36e-05,
      "inclination_deg": 51.902,
      "raan_deg": 342.2905,
      "arg_perigee_deg": 96.4792,
      "mean_anomaly_deg": 263.6277,
      "mean_motion_rev_day": 14.79906973
    },
    {
      "epoch": "2026-04-22T01:10:41.626560Z",
      "apogee_km": 630.2735461121756,
      "perigee_km": 628.948240830563,
      "latitude_deg": 1.7075811292885857e-05,
      "longitude_deg": 113.60490801799261,
      "height_km": 630.4417996688159,
      "semi_major_axis_km": 7007.747893471369,
      "eccentricity": 9.456e-05,
      "inclination_deg": 51.9014,
      "raan_deg": 341.3946,
      "arg_perigee_deg": 97.3885,
      "mean_anomaly_deg": 262.7185,
      "mean_motion_rev_day": 14.79909158
    },
    {
      "epoch": "2026-04-22T23:52:06.661056Z",
      "apogee_km": 630.257171800351,
      "perigee_km": 628.9293470707926,
      "latitude_deg": -3.164545478359177e-05,
      "longitude_deg": 128.13780033791076,
      "height_km": 630.4490855653459,
      "semi_major_axis_km": 7007.7302594355715,
      "eccentricity": 9.474e-05,
      "inclination_deg": 51.9017,
      "raan_deg": 337.2137,
      "arg_perigee_deg": 99.5449,
      "mean_anomaly_deg": 260.562,
      "mean_motion_rev_day": 14.79914744
    },
    {
      "epoch": "2026-04-24T19:37:41.140992Z",
      "apogee_km": 630.1755016414663,
      "perigee_km": 628.9323372723538,
      "latitude_deg": -6.12837580847506e-05,
      "longitude_deg": -178.1151337000616,
      "height_km": 630.3393870177445,
      "semi_major_axis_km": 7007.69091945691,
      "eccentricity": 8.87e-05,
      "inclination_deg": 51.9025,
      "raan_deg": 329.1516,
      "arg_perigee_deg": 93.6501,
      "mean_anomaly_deg": 266.4562,
      "mean_motion_rev_day": 14.79927206
    }
  ]
}